{
    "links": {
        "self": "http://www.neowsapp.com/rest/v1/neo/3507937?api_key=iIulBulltgU6a56xZRHN4H3l9WmuAYTsLGpBGhQ2"
    },
    "id": "3507937",
    "neo_reference_id": "3507937",
    "name": "(2010 CR5)",
    "designation": "2010 CR5",
    "nasa_jpl_url": "http://ssd.jpl.nasa.gov/sbdb.cgi?sstr=3507937",
    "absolute_magnitude_h": 19.6,
    "estimated_diameter": {
        "kilometers": {
            "estimated_diameter_min": 0.3195618867,
            "estimated_diameter_max": 0.7145621017
        },
        "meters": {
            "estimated_diameter_min": 319.5618867213,
            "estimated_diameter_max": 714.5621017269
        },
        "miles": {
            "estimated_diameter_min": 0.1985664891,
            "estimated_diameter_max": 0.4440081677
        },
        "feet": {
            "estimated_diameter_min": 1048.4314204307,
            "estimated_diameter_max": 2344.3639258298
        }
    },
    "is_potentially_hazardous_asteroid": false,
    "close_approach_data": [
        {
            "close_approach_date": "2009-10-11",
            "close_approach_date_full": "2009-Oct-11 22:35",
            "epoch_date_close_approach": 1255300500000,
            "relative_velocity": {
                "kilometers_per_second": "24.4078815552",
                "kilometers_per_hour": "87868.3735986908",
                "miles_per_hour": "54597.9902508088"
            },
            "miss_distance": {
                "astronomical": "0.452613491",
                "lunar": "176.066647999",
                "kilometers": "67710014.18686417",
                "miles": "42073051.862378746"
            },
            "orbiting_body": "Earth"
        }
    ],
    "orbital_data": {
        "orbit_id": "12",
        "orbit_determination_date": "2017-04-06 08:58:28",
        "first_observation_date": "2010-02-09",
        "last_observation_date": "2010-02-20",
        "data_arc_in_days": 11,
        "observations_used": 40,
        "orbit_uncertainty": "9",
        "minimum_orbit_intersection": ".0636206",
        "jupiter_tisserand_invariant": "2.601",
        "epoch_osculation": "2455241.5",
        "eccentricity": ".8177292479544871",
        "semi_major_axis": "3.007147175437987",
        "inclination": "5.611433659286996",
        "ascending_node_longitude": "323.3486333512013",
        "orbital_period": "1904.716976329869",
        "perihelion_distance": ".5481149771786218",
        "perihelion_argument": "49.43617163589651",
        "aphelion_distance": "5.466179373697352",
        "perihelion_time": "2455113.893713113448",
        "mean_anomaly": "24.11815710682409",
        "mean_motion": ".1890044581288245",
        "equinox": "J2000",
        "orbit_class": {
            "orbit_class_type": "APO",
            "orbit_class_description": "Near-Earth asteroid orbits which cross the Earth’s orbit similar to that of 1862 Apollo",
            "orbit_class_range": "a (semi-major axis) > 1.0 AU; q (perihelion) < 1.017 AU"
        }
    },
    "is_sentry_object": false
}